[{"OBJECT_NAME":"ICESAT-2","OBJECT_ID":"2018-070A","EPOCH":"2026-03-09T22:54:12.225888","MEAN_MOTION":15.28328617,"ECCENTRICITY":0.00038245,"INCLINATION":91.9993,"RA_OF_ASC_NODE":264.2397,"ARG_OF_PERICENTER":123.8941,"MEAN_ANOMALY":236.2673,"EPHEMERIS_TYPE":0,"CLASSIFICATION_TYPE":"U","NORAD_CAT_ID":43613,"ELEMENT_SET_NO":999,"REV_AT_EPOCH":41730,"BSTAR":0.00014022643,"MEAN_MOTION_DOT":3.87e-5,"MEAN_MOTION_DDOT":0},{"OBJECT_NAME":"STARLINK-31084","OBJECT_ID":"2023-203N","EPOCH":"2026-03-09T01:29:42.872064","MEAN_MOTION":15.2757398,"ECCENTRICITY":0.00018671,"INCLINATION":43.0074,"RA_OF_ASC_NODE":74.2277,"ARG_OF_PERICENTER":288.8241,"MEAN_ANOMALY":71.2408,"EPHEMERIS_TYPE":0,"CLASSIFICATION_TYPE":"U","NORAD_CAT_ID":58630,"ELEMENT_SET_NO":999,"REV_AT_EPOCH":12342,"BSTAR":1.3848565e-5,"MEAN_MOTION_DOT":1.19e-6,"MEAN_MOTION_DDOT":0}]
